OBJECT_NAME,OBJECT_ID,EPOCH,MEAN_MOTION,ECCENTRICITY,INCLINATION,RA_OF_ASC_NODE,ARG_OF_PERICENTER,MEAN_ANOMALY,EPHEMERIS_TYPE,CLASSIFICATION_TYPE,NORAD_CAT_ID,ELEMENT_SET_NO,REV_AT_EPOCH,BSTAR,MEAN_MOTION_DOT,MEAN_MOTION_DDOT
STARLINK-31527,2024-036W,2024-03-15T04:00:00.999936,15.43029693,0.0001494,53.1605,201.8899,90.9497,61.0705,0,U,59018,999,443,-0.054015,-0.02139404,0
STARLINK-31436,2024-036X,2024-03-14T22:00:00.999936,15.43883547,0.000135,53.1595,203.2516,59.8481,53.0004,0,U,59019,999,444,-0.00075333,-0.00035003,0
TJS-11,2024-037A,2024-03-14T01:54:23.145984,1.00272417,0.0004051,5.4963,321.0812,47.3643,312.5554,0,U,59020,999,31,0,-3.79e-06,0
CZ-5 R/B,2024-037B,2024-03-14T03:37:19.684992,2.45667389,0.7150503,16.4917,336.9236,206.0229,85.5907,0,U,59021,999,47,0.0016592,9.374e-05,0
STARLINK-30996,2024-038A,2024-03-15T06:00:00.999648,15.55787359,0.000122,42.9994,151.7426,262.4452,349.4388,0,U,59023,999,407,-0.02727,-0.01726487,0
STARLINK-31006,2024-038B,2024-03-14T22:00:00.999936,15.70971135,0.0001264,43.0006,152.7992,278.5809,267.8401,0,U,59024,999,399,-0.015558,-0.01761652,0
STARLINK-31178,2024-038C,2024-03-15T06:00:00.999648,15.55780549,0.0001241,42.9994,151.7329,263.8332,351.9291,0,U,59025,999,377,-0.027282,-0.01726783,0
STARLINK-31227,2024-038D,2024-03-15T06:00:00.999648,15.55777174,0.0001284,42.9994,151.7274,263.4891,354.2124,0,U,59026,999,403,-0.027286,-0.01726837,0
STARLINK-30863,2024-038E,2024-03-15T06:00:00.999648,15.55770609,0.0001301,42.9995,151.7176,267.014,354.5648,0,U,59027,999,393,-0.027302,-0.01727372,0
STARLINK-31206,2024-038F,2024-03-15T06:00:00.999648,15.89322198,0.0001669,43.0018,150.3456,306.3292,146.1562,0,U,59028,999,407,0.0012203,0.00382125,0
STARLINK-31224,2024-038G,2024-03-15T06:00:00.999648,15.55766781,0.0001272,42.9992,151.7123,265.8334,357.6845,0,U,59029,999,403,-0.027294,-0.01726684,0
STARLINK-31186,2024-038H,2024-03-15T06:00:00.999648,15.5576279,0.0001298,42.9994,151.7073,264.6485,0.8085,0,U,59030,999,403,-0.027279,-0.01725619,0
STARLINK-31211,2024-038J,2024-03-15T06:00:00.999648,15.55758957,0.0001488,42.9993,151.7028,258.4847,8.911,0,U,59031,999,393,-0.027262,-0.01724538,0
STARLINK-30862,2024-038K,2024-03-14T22:00:00.999936,15.63155609,0.0001497,42.9994,153.6013,264.0682,320.6024,0,U,59032,999,388,-0.021268,-0.01781805,0
STARLINK-31210,2024-038L,2024-03-15T06:00:00.999648,15.55753051,0.0001414,42.9995,151.6941,265.9302,5.3434,0,U,59033,999,409,-0.027301,-0.01726362,0
STARLINK-31231,2024-038M,2024-03-15T06:00:00.999648,15.55748461,0.0001444,42.9995,151.6884,258.5893,14.6239,0,U,59034,999,393,-0.027277,-0.01724757,0
STARLINK-31207,2024-038N,2024-03-15T06:00:00.999648,15.55744987,0.0001503,42.9993,151.6834,258.9037,16.2477,0,U,59035,999,409,-0.027273,-0.01724363,0
STARLINK-31217,2024-038P,2024-03-14T22:00:00.999936,15.67809714,0.0001157,43.0002,152.998,282.1811,184.1542,0,U,59036,999,331,-0.016874,-0.01683806,0
STARLINK-31208,2024-038Q,2024-03-14T22:00:00.999936,15.63786069,0.0001507,42.9997,153.0633,281.1049,158.2641,0,U,59037,999,333,-0.020681,-0.01777204,0
STARLINK-31235,2024-038R,2024-03-15T06:00:00.999648,15.5573098,0.000148,42.9994,151.6635,259.4413,23.4658,0,U,59038,999,403,-0.027286,-0.01724278,0
STARLINK-31220,2024-038S,2024-03-15T06:00:00.999648,15.55734577,0.0001383,42.9994,151.6679,261.9945,18.9741,0,U,59039,999,403,-0.027293,-0.01724829,0
STARLINK-31225,2024-038T,2024-03-15T06:00:00.999648,15.76433658,0.0001315,43.0003,151.1904,309.54,164.5957,0,U,59040,999,394,0.0011408,0.00190068,0
STARLINK-31240,2024-038U,2024-03-15T06:00:00.999648,15.55723863,0.0001432,42.9994,151.653,259.6813,27.1037,0,U,59041,999,405,-0.027292,-0.01724181,0
STARLINK-31202,2024-038V,2024-03-15T06:00:00.999648,15.55721237,0.0001326,42.9995,151.6482,257.091,31.6321,0,U,59042,999,409,-0.027318,-0.01725442,0
STARLINK-31234,2024-038W,2024-03-15T06:00:00.999648,15.5571321,0.0001503,42.9993,151.6387,260.4354,32.1659,0,U,59043,999,388,-0.02729,-0.01723493,0
STARLINK-31153,2024-038X,2024-03-15T06:00:00.999648,15.55716869,0.0001454,42.9994,151.6431,259.5776,31.0851,0,U,59044,999,392,-0.027297,-0.01724073,0
STARLINK-31241,2024-038Y,2024-03-15T06:00:00.999648,15.55710146,0.0001545,42.9994,151.6338,262.2138,32.3262,0,U,59045,999,409,-0.027305,-0.01724186,0
STARLINK-31205,2024-038Z,2024-03-15T06:00:00.999648,15.55706616,0.0001445,42.9994,151.6289,262.2759,34.2032,0,U,59046,999,403,-0.027312,-0.01724324,0
METEOR-M2 4,2024-039A,2024-03-15T05:08:13.619328,14.22199269,0.000791,98.587,39.4753,44.1552,316.0256,0,U,59051,999,213,0.00012703,2.39e-06,0
SITRO-AIS 29,2024-039B,2024-03-15T03:40:29.724384,15.22891229,0.0019867,97.3843,38.3292,180.2279,179.8952,0,U,59052,999,226,0.00077108,0.00018129,0
