SITRO-AIS B             
1 59052U 24039B   24075.15312181  .00018129  00000+0  77108-3 0  9995
2 59052  97.3843  38.3292 0019867 180.2279 179.8952 15.22891229  2266
TJS-11                  
1 59020U 24037A   24074.07943456 -.00000379  00000+0  00000+0 0  9995
2 59020   5.4963 321.0812 0004051  47.3643 312.5554  1.00272417   312
STARLINK-31527          
1 59018U 24036W   24075.16667824 -.02139404  00000+0 -54015-1 0  9996
2 59018  53.1605 201.8899 0001494  90.9497  61.0705 15.43029693  4430
STARLINK-31436          
1 59019U 24036X   24074.91667824 -.00035003  00000+0 -75333-3 0  9995
2 59019  53.1595 203.2516 0001350  59.8481  53.0004 15.43883547  4449
CZ-5 R/B                
1 59021U 24037B   24074.15092228  .00009374  00000+0  16592-2 0  9996
2 59021  16.4917 336.9236 7150503 206.0229  85.5907  2.45667389   476
STARLINK-30996          
1 59023U 24038A   24075.25001157 -.01726487  00000+0 -27270-1 0  9990
2 59023  42.9994 151.7426 0001220 262.4452 349.4388 15.55787359  4079
STARLINK-31006          
1 59024U 24038B   24074.91667824 -.01761652  00000+0 -15558-1 0  9991
2 59024  43.0006 152.7992 0001264 278.5809 267.8401 15.70971135  3990
STARLINK-31178          
1 59025U 24038C   24075.25001157 -.01726783  00000+0 -27282-1 0  9994
2 59025  42.9994 151.7329 0001241 263.8332 351.9291 15.55780549  3779
STARLINK-31227          
1 59026U 24038D   24075.25001157 -.01726837  00000+0 -27286-1 0  9999
2 59026  42.9994 151.7274 0001284 263.4891 354.2124 15.55777174  4033
STARLINK-30863          
1 59027U 24038E   24075.25001157 -.01727372  00000+0 -27302-1 0  9994
2 59027  42.9995 151.7176 0001301 267.0140 354.5648 15.55770609  3931
STARLINK-31206          
1 59028U 24038F   24075.25001157  .00382125  00000+0  12203-2 0  9990
2 59028  43.0018 150.3456 0001669 306.3292 146.1562 15.89322198  4077
STARLINK-31224          
1 59029U 24038G   24075.25001157 -.01726684  00000+0 -27294-1 0  9991
2 59029  42.9992 151.7123 0001272 265.8334 357.6845 15.55766781  4031
STARLINK-31186          
1 59030U 24038H   24075.25001157 -.01725619  00000+0 -27279-1 0  9993
2 59030  42.9994 151.7073 0001298 264.6485   0.8085 15.55762790  4030
STARLINK-31211          
1 59031U 24038J   24075.25001157 -.01724538  00000+0 -27262-1 0  9995
2 59031  42.9993 151.7028 0001488 258.4847   8.9110 15.55758957  3930
STARLINK-30862          
1 59032U 24038K   24074.91667824 -.01781805  00000+0 -21268-1 0  9997
2 59032  42.9994 153.6013 0001497 264.0682 320.6024 15.63155609  3883
STARLINK-31210          
1 59033U 24038L   24075.25001157 -.01726362  00000+0 -27301-1 0  9998
2 59033  42.9995 151.6941 0001414 265.9302   5.3434 15.55753051  4093
STARLINK-31231          
1 59034U 24038M   24075.25001157 -.01724757  00000+0 -27277-1 0  9997
2 59034  42.9995 151.6884 0001444 258.5893  14.6239 15.55748461  3933
STARLINK-31207          
1 59035U 24038N   24075.25001157 -.01724363  00000+0 -27273-1 0  9997
2 59035  42.9993 151.6834 0001503 258.9037  16.2477 15.55744987  4096
STARLINK-31217          
1 59036U 24038P   24074.91667824 -.01683806  00000+0 -16874-1 0  9990
2 59036  43.0002 152.9980 0001157 282.1811 184.1542 15.67809714  3315
STARLINK-31208          
1 59037U 24038Q   24074.91667824 -.01777204  00000+0 -20681-1 0  9998
2 59037  42.9997 153.0633 0001507 281.1049 158.2641 15.63786069  3332
STARLINK-31235          
1 59038U 24038R   24075.25001157 -.01724278  00000+0 -27286-1 0  9999
2 59038  42.9994 151.6635 0001480 259.4413  23.4658 15.55730980  4030
STARLINK-31220          
1 59039U 24038S   24075.25001157 -.01724829  00000+0 -27293-1 0  9990
2 59039  42.9994 151.6679 0001383 261.9945  18.9741 15.55734577  4037
STARLINK-31225          
1 59040U 24038T   24075.25001157  .00190068  00000+0  11408-2 0  9993
2 59040  43.0003 151.1904 0001315 309.5400 164.5957 15.76433658  3943
STARLINK-31240          
1 59041U 24038U   24075.25001157 -.01724181  00000+0 -27292-1 0  9993
2 59041  42.9994 151.6530 0001432 259.6813  27.1037 15.55723863  4057
STARLINK-31202          
1 59042U 24038V   24075.25001157 -.01725442  00000+0 -27318-1 0  9994
2 59042  42.9995 151.6482 0001326 257.0910  31.6321 15.55721237  4090
STARLINK-31234          
1 59043U 24038W   24075.25001157 -.01723493  00000+0 -27290-1 0  9998
2 59043  42.9993 151.6387 0001503 260.4354  32.1659 15.55713210  3888
STARLINK-31153          
1 59044U 24038X   24075.25001157 -.01724073  00000+0 -27297-1 0  9991
2 59044  42.9994 151.6431 0001454 259.5776  31.0851 15.55716869  3922
STARLINK-31241          
1 59045U 24038Y   24075.25001157 -.01724186  00000+0 -27305-1 0  9997
2 59045  42.9994 151.6338 0001545 262.2138  32.3262 15.55710146  4094
STARLINK-31205          
1 59046U 24038Z   24075.25001157 -.01724324  00000+0 -27312-1 0  9990
2 59046  42.9994 151.6289 0001445 262.2759  34.2032 15.55706616  4035
METEOR-M2 4             
1 59051U 24039A   24075.21404652  .00000239  00000+0  12703-3 0  9999
2 59051  98.5870  39.4753 0007910  44.1552 316.0256 14.22199269  2132
